#aV2012  9 25  0  0  0.00000000     288 DD+AD WGS84 FIT  NGA
## 1707 172800.00000000   300.00000000 56195 0.0000000000000
+   31     1  2  3  4  5  6  7  8  9 10 11 12 13 14 15 16 17
+         18 19 20 21 22 23 25 26 27 28 29 30 31 32  0  0  0
+          0  0  0  0  0  0  0  0  0  0  0  0  0  0  0  0  0
+          0  0  0  0  0  0  0  0  0  0  0  0  0  0  0  0  0
+          0  0  0  0  0  0  0  0  0  0  0  0  0  0  0  0  0
++         2  2  2  2  2  2  2  2  2  2  2  2  2  2  2  2  2
++         2  2  2  2  2  2  2  2  2  2  2  2  2  2  2  0  0
++         0  0  0  0  0  0  0  0  0  0  0  0  0  0  0  0  0
++         0  0  0  0  0  0  0  0  0  0  0  0  0  0  0  0  0
++         0  0  0  0  0  0  0  0  0  0  0  0  0  0  0  0  0
%c cc cc ccc ccc cccc cccc cccc cccc ccccc ccccc ccccc ccccc
%c cc cc ccc ccc cccc cccc cccc cccc ccccc ccccc ccccc ccccc
%f  0.0000000  0.000000000  0.00000000000  0.000000000000000
%f  0.0000000  0.000000000  0.00000000000  0.000000000000000
%i    0    0    0    0      0      0      0      0         0
%i    0    0    0    0      0      0      0      0         0
/*      NGA, ST. LOUIS,MO.                                  
/*   EPHEMERIS COMPUTED FROM  1 DAYS OF DATA
/*   EPOCHA SMOOTHER  
/* CCCCCCCCCCCCCCCCCCCCCCCCCCCCCCCCCCCCCCCCCCCCCCCCCCCCCCCCC
*  2012  9 25  3 50  0.00000000                                                 
P  1 -14099.985335  19814.630667  10597.500229    275.058717                    
V  1   1704.573567 -13626.580868  27755.888068      0.015576                    
P  2  15607.381920   2006.678736 -21212.767519    403.968204                    
V  2  -7334.221217  26417.151400  -3382.004872      0.011716                    
P  3 -22232.847072  -6136.336911  12892.018468    106.083025                    
V  3 -11264.832498 -13251.717897 -24539.570081      0.050031                    
P  4   9454.078910  16161.400307 -18989.687448     -2.886557                    
V  4  -8910.404487  22077.406839  14863.481660      0.112106                    
P  5  25937.994914  -1321.543401  -5923.076770   -354.626069                    
V  5  -6683.343751   4446.024247 -30226.520093     -0.029419                    
P  6 -22065.532709 -11303.407004  10058.383522    -38.006885                    
V  6  -6989.707623 -10813.444985 -27451.310510     -0.089181                    
P  7  -6335.198355  25432.590799   3242.874589    125.885540                    
V  7  -3732.056975   3067.382133 -31926.138629      0.043237                    
P  8   1651.890866  21209.672924  15585.821707      2.231145                    
V  8  -9343.150705  17534.260026 -23568.354277      0.000244                    
P  9  14884.278914 -16588.868710  13944.035302    187.892064                    
V  9  -3913.998065  18247.676716  24853.685679      0.025971                    
P 10  15400.343568  11007.063408 -19050.041546    -52.937514                    
V 10 -22862.527067   5823.121930 -14925.288523     -0.013500                    
P 11 -13605.601614  15499.711157  16168.921420   -306.193251                    
V 11  -2721.922278 -21775.887559  18434.682032     -0.039158                    
P 12  21034.968726 -11569.490850 -11171.379486     92.725067                    
V 12  14318.987661   -655.027423  27867.784835      0.020296                    
P 13    435.931829  20037.349558 -17502.811197    178.823196                    
V 13 -14172.051338 -16815.712887 -19862.598001     -0.025832                    
P 14 -14142.898542 -22255.261490   3997.090699    213.427486                    
V 14   4644.538339   2451.133054  31479.382067      0.008665                    
P 15  15835.295343  -5151.321083  20728.476720    -95.995970                    
V 15  17584.364735  19640.356267  -8326.396136     -0.007341                    
P 16 -26052.286066    376.790752  -5966.009750   -246.707428                    
V 16   7076.953171  -3036.655796 -30823.675018     -0.007593                    
P 17  14725.063242  21919.821157   4079.483651     93.544180                    
V 17  -5050.510581  -2177.714289  31100.176885     -0.033038                    
P 18   1940.902667 -16493.307333  21057.530846    216.588046                    
V 18  25684.265182  -4482.588307  -6346.634571      0.018187                    
P 19 -16940.757808   1266.549593  20443.333338   -306.979509                    
V 19 -15042.311093 -21240.751243 -10717.730461     -0.035124                    
P 20 -18362.599283  14594.468674 -12551.591109     68.957058                    
V 20 -16052.803260   1084.372558  25136.615135      0.008834                    
P 21   2969.947276 -25340.435528   6747.204936   -251.820965                    
V 21   6236.622857  -6475.155957 -29845.340040     -0.023995                    
P 22 -13251.086054 -12340.579363  19658.440657    148.374505                    
V 22  23851.704039  -6376.912161  12063.320418      0.007335                    
P 23  -9947.881126  11665.550921 -21607.661258    161.032859                    
V 23 -18581.766489 -20426.196005  -2847.406223     -0.039237                    
P 25   9314.616569 -15677.898449 -19328.543870     44.026875                    
V 25  24120.015429  -4190.001680  15113.798922      0.013789                    
P 26  19519.836993   8877.908993  15280.920618   -268.989911                    
V 26  11075.208799  17140.471235 -22831.551935      0.132187                    
P 27  15860.978260 -11852.717658  18026.433031    435.057048                    
V 27  -4603.576728  21420.333908  19287.055907      0.040799                    
P 28   9332.756946  13200.167727  21675.295368    188.734932                    
V 28 -25714.200019   4582.048145   8294.289460      0.037285                    
P 29   1943.260937 -18388.147257 -19032.586885    359.169211                    
V 29  16458.020943  17858.999755 -15490.246347      0.040413                    
P 30 -20780.241135  -5072.391955 -16093.020597   -395.893871                    
V 30  18256.181879  -7832.932876 -21611.700688      0.183947                    
P 31  -9877.542010 -13371.316797 -20463.402046    276.608857                    
V 31   9482.986009 -24680.286035  11682.381008      0.024452                    
P 32 -24737.336967   6980.509462  -5355.198031   -491.503348                    
V 32  -7528.447208  -2568.086945  30850.640373     -0.040104                    
EOF
